OBJECT_NAME,OBJECT_ID,EPOCH,MEAN_MOTION,ECCENTRICITY,INCLINATION,RA_OF_ASC_NODE,ARG_OF_PERICENTER,MEAN_ANOMALY,EPHEMERIS_TYPE,CLASSIFICATION_TYPE,NORAD_CAT_ID,ELEMENT_SET_NO,REV_AT_EPOCH,BSTAR,MEAN_MOTION_DOT,MEAN_MOTION_DDOT
SIRION PATHFINDER-2,2018-099B,2026-06-10T01:06:35.641440,15.14486025,.00077161,97.4257,210.2733,334.0857,25.9987,0,U,43759,999,41154,.21131784E-3,.3826E-4,0
CORVUS BC4,2018-099K,2026-06-10T08:58:28.670880,15.12441507,.0009021,97.4073,204.5538,35.7557,324.4276,0,U,43767,999,41137,.21319E-3,.3645E-4,0
M2 PATHFINDER,2020-037E,2026-06-10T06:19:43.667040,15.04648075,.0011852,97.8160,352.4179,168.8830,191.2660,0,U,45727,999,32445,.16065E-3,.2197E-4,0
NETSAT-4,2020-068U,2026-06-10T12:19:08.427072,15.43642419,.0004712,97.8606,169.2185,6.8671,353.2639,0,U,46504,999,31474,.35443E-3,.15882E-3,0
NETSAT-3,2020-068V,2026-06-10T06:07:05.380896,15.42438382,.00052,97.8658,167.1648,26.3692,333.7817,0,U,46505,999,31461,.40267E-3,.17346E-3,0
NETSAT-1,2020-068W,2026-06-10T11:37:28.050816,15.34484186,.0005813,97.8744,161.8220,51.4393,308.7368,0,U,46506,999,31427,.35102E-3,.11648E-3,0
NETSAT-2,2020-068X,2026-06-10T11:56:40.312320,15.45710642,.0004336,97.8613,169.0715,44.4984,315.6612,0,U,46507,999,31470,.42127E-3,.20282E-3,0
GREENCUBE (IO-117),2022-080E,2026-06-01T11:09:37.753056,6.42583280,.00088692,70.1435,303.7143,293.3663,66.6064,0,U,53109,999,9105,0,-.3E-7,0
SITRO-AIS 5 (KATYS),2023-091L,2026-06-10T09:30:42.892992,15.29298638,.0012744,97.5066,225.2316,124.4341,235.8105,0,U,57176,999,16330,.41058E-3,.11625E-3,0
SITRO-AIS 6 (CHIRKIN),2023-091AC,2026-06-10T11:46:47.839872,15.25805808,.0013038,97.5074,224.4816,127.1254,233.1177,0,U,57192,999,16326,.33806E-3,.859E-4,0
SITRO-AIS 8 (ANOKHIN),2023-091AD,2026-06-10T11:46:17.645664,15.31949665,.001186,97.5062,226.8883,120.5061,239.7353,0,U,57193,999,16342,.42109E-3,.12945E-3,0
SITRO-AIS 7 (FARTUSHNIY),2023-091AE,2026-06-10T11:49:22.113120,15.25495727,.0012857,97.5072,224.3117,127.9679,232.2722,0,U,57194,999,16325,.33362E-3,.8397E-4,0
SITRO-AIS 10 (BURDAEV),2023-091AK,2026-06-10T11:38:24.749088,15.38353307,.0007863,97.5086,231.8681,100.0319,260.1813,0,U,57199,999,16373,.47843E-3,.18044E-3,0
SITRO-AIS 9 (SHCHUKIN),2023-091AM,2026-06-10T10:39:41.230080,15.37872471,.0008117,97.5083,231.5616,100.2982,259.9178,0,U,57201,999,16371,.4842E-3,.1798E-3,0
SITRO-AIS 12 (SMIRENNIY),2023-091AQ,2026-06-10T12:01:41.617632,15.38162567,.0007693,97.5096,232.0828,95.2623,264.9499,0,U,57204,999,16374,.45248E-3,.16951E-3,0
SITRO-AIS 11 (SHEFFER),2023-091AU,2026-06-10T10:50:00.387168,15.38581514,.000759,97.5094,232.2740,95.2034,265.0077,0,U,57208,999,16375,.4674E-3,.17755E-3,0
SITRO-AIS 25,2024-039R,2026-06-10T13:00:49.600800,14.93479508,.0144292,95.3914,230.5261,352.1810,7.7165,0,U,59066,999,12373,.23857E-3,.3045E-4,0
SITRO-AIS 26,2024-039S,2026-06-10T13:01:29.992800,14.93276366,.0144649,95.3915,230.4255,352.7557,7.1575,0,U,59067,999,12372,.22892E-3,.2907E-4,0
SITRO-AIS 27,2024-039T,2026-06-10T10:44:51.874368,14.93692115,.0143712,95.3914,230.6289,351.6545,8.2291,0,U,59068,999,12373,.2129E-3,.2725E-4,0
SITRO-AIS 28,2024-039U,2026-06-10T11:49:03.704736,14.93728069,.014359,95.3918,230.7064,351.3928,8.4837,0,U,59071,999,12374,.18103E-3,.2313E-4,0
GRBBETA,2024-128C,2026-06-10T12:24:08.122752,15.06595346,.0041556,61.9898,239.6686,133.2110,227.2466,0,U,60237,999,10526,.22144E-3,.3139E-4,0
OOV-CUBE (TUBSAT-30),2024-128F,2026-06-10T08:02:21.960960,15.02745355,.0045478,61.9950,249.4658,132.2343,228.2621,0,U,60240,999,10508,.1616E-3,.2002E-4,0
ROBUSTA-3A (MEDITERRANEE),2024-128J,2026-06-10T12:28:47.186112,15.11597596,.0042079,61.9859,231.8200,126.8629,233.6336,0,U,60243,999,10541,.35005E-3,.5875E-4,0
LASARSAT,2024-247Q,2026-06-09T19:18:52.108128,15.45910909,.0008391,44.9750,303.6854,290.3514,69.6474,0,U,62391,999,8217,.71316E-3,.35312E-3,0
CROCUBE,2024-247T,2026-06-10T06:19:06.372480,15.47769035,.00082369,44.9722,298.5557,296.7066,63.2981,0,U,62394,999,8227,.72705979E-3,.38432E-3,0
FORESAIL-1 PRIME,2025-276DS,2026-06-10T03:27:30.040416,15.18638120,.0003804,97.4201,234.5441,117.9504,242.2116,0,U,66778,999,2933,.22914E-3,.4678E-4,0
KNACKSAT-2,1998-067XZ,2026-06-09T17:25:01.274016,15.59295239,.0010077,51.6308,331.9912,182.3472,177.7476,0,U,67683,999,1911,.58122E-3,.46495E-3,0
