SIRION PATHFINDER-2     
1 43759U 18099B   26161.04624585  .00003826  00000+0  21132-3 0  9995
2 43759  97.4257 210.2733 0007716 334.0857  25.9987 15.14486025411544
CORVUS BC4              
1 43767U 18099K   26161.37394295  .00003645  00000+0  21319-3 0  9998
2 43767  97.4073 204.5538 0009021  35.7557 324.4276 15.12441507411374
M2 PATHFINDER           
1 45727U 20037E   26161.26369985  .00002197  00000+0  16065-3 0  9990
2 45727  97.8160 352.4179 0011852 168.8830 191.2660 15.04648075324453
NETSAT-4                
1 46504U 20068U   26161.51329198  .00015882  00000+0  35443-3 0  9994
2 46504  97.8606 169.2185 0004712   6.8671 353.2639 15.43642419314740
NETSAT-3                
1 46505U 20068V   26161.25492339  .00017346  00000+0  40267-3 0  9991
2 46505  97.8658 167.1648 0005200  26.3692 333.7817 15.42438382314610
NETSAT-1                
1 46506U 20068W   26161.48435244  .00011648  00000+0  35102-3 0  9990
2 46506  97.8744 161.8220 0005813  51.4393 308.7368 15.34484186314270
NETSAT-2                
1 46507U 20068X   26161.49768880  .00020282  00000+0  42127-3 0  9996
2 46507  97.8613 169.0715 0004336  44.4984 315.6612 15.45710642314700
GREENCUBE (IO-117)      
1 53109U 22080E   26152.46502029 -.00000003  00000+0  00000+0 0  9996
2 53109  70.1435 303.7143 0008869 293.3663  66.6064  6.42583280 91055
SITRO-AIS 5 (KATYS)     
1 57176U 23091L   26161.39632978  .00011625  00000+0  41058-3 0  9999
2 57176  97.5066 225.2316 0012744 124.4341 235.8105 15.29298638163309
SITRO-AIS 6 (CHIRKIN)   
1 57192U 23091AC  26161.49083148  .00008590  00000+0  33806-3 0  9996
2 57192  97.5074 224.4816 0013038 127.1254 233.1177 15.25805808163266
SITRO-AIS 8 (ANOKHIN)   
1 57193U 23091AD  26161.49048201  .00012945  00000+0  42109-3 0  9993
2 57193  97.5062 226.8883 0011860 120.5061 239.7353 15.31949665163421
SITRO-AIS 7 (FARTUSHNIY)
1 57194U 23091AE  26161.49261705  .00008397  00000+0  33362-3 0  9997
2 57194  97.5072 224.3117 0012857 127.9679 232.2722 15.25495727163256
SITRO-AIS 10 (BURDAEV)  
1 57199U 23091AK  26161.48500867  .00018044  00000+0  47843-3 0  9995
2 57199  97.5086 231.8681 0007863 100.0319 260.1813 15.38353307163734
SITRO-AIS 9 (SHCHUKIN)  
1 57201U 23091AM  26161.44422720  .00017980  00000+0  48420-3 0  9996
2 57201  97.5083 231.5616 0008117 100.2982 259.9178 15.37872471163716
SITRO-AIS 12 (SMIRENNIY)
1 57204U 23091AQ  26161.50117613  .00016951  00000+0  45248-3 0  9990
2 57204  97.5096 232.0828 0007693  95.2623 264.9499 15.38162567163741
SITRO-AIS 11 (SHEFFER)  
1 57208U 23091AU  26161.45139337  .00017755  00000+0  46740-3 0  9996
2 57208  97.5094 232.2740 0007590  95.2034 265.0077 15.38581514163752
SITRO-AIS 25            
1 59066U 24039R   26161.54224075  .00003045  00000+0  23857-3 0  9998
2 59066  95.3914 230.5261 0144292 352.1810   7.7165 14.93479508123732
SITRO-AIS 26            
1 59067U 24039S   26161.54270825  .00002907  00000+0  22892-3 0  9997
2 59067  95.3915 230.4255 0144649 352.7557   7.1575 14.93276366123721
SITRO-AIS 27            
1 59068U 24039T   26161.44782262  .00002725  00000+0  21290-3 0  9999
2 59068  95.3914 230.6289 0143712 351.6545   8.2291 14.93692115123737
SITRO-AIS 28            
1 59071U 24039U   26161.49240399  .00002313  00000+0  18103-3 0  9990
2 59071  95.3918 230.7064 0143590 351.3928   8.4837 14.93728069123740
GRBBETA                 
1 60237U 24128C   26161.51676068  .00003139  00000+0  22144-3 0  9991
2 60237  61.9898 239.6686 0041556 133.2110 227.2466 15.06595346105260
OOV-CUBE (TUBSAT-30)    
1 60240U 24128F   26161.33497640  .00002002  00000+0  16160-3 0  9991
2 60240  61.9950 249.4658 0045478 132.2343 228.2621 15.02745355105082
ROBUSTA-3A (MEDITERRAN*)
1 60243U 24128J   26161.51999058  .00005875  00000+0  35005-3 0  9994
2 60243  61.9859 231.8200 0042079 126.8629 233.6336 15.11597596105413
LASARSAT                
1 62391U 24247Q   26160.80476977  .00035312  00000+0  71316-3 0  9997
2 62391  44.9750 303.6854 0008391 290.3514  69.6474 15.45910909 82173
CROCUBE                 
1 62394U 24247T   26161.26326820  .00038432  00000+0  72706-3 0  9992
2 62394  44.9722 298.5557 0008236 296.7066  63.2981 15.47769035 82275
FORESAIL-1 PRIME        
1 66778U 25276DS  26161.14409769  .00004678  00000+0  22914-3 0  9997
2 66778  97.4201 234.5441 0003804 117.9504 242.2116 15.18638120 29334
KNACKSAT-2              
1 67683U 98067XZ  26160.72570919  .00046495  00000+0  58122-3 0  9993
2 67683  51.6308 331.9912 0010077 182.3472 177.7476 15.59295239 19116
